STARLINK-3154           
1 49417U 21104K   24309.16091794 -.00001015  00000+0 -45712-4 0  9999
2 49417  53.2165 260.8366 0001317 102.8652 257.2488 15.08833405164718
STARLINK-3111           
1 49418U 21104L   24309.19684573  .00002658  00000+0  18505-3 0  9997
2 49418  53.2169 271.0293 0001424  91.1404 268.9751 15.08840571164578
STARLINK-3120           
1 49419U 21104M   24309.31828129 -.00000905  00000+0 -38808-4 0  9993
2 49419  53.2169 270.4773 0001356  91.6078 268.5069 15.08838705165688
STARLINK-3110           
1 49420U 21104N   24309.59059833  .00004960  00000+0  32946-3 0  9992
2 49420  53.2168 269.2603 0001143  97.4132 262.6990 15.08843716164636
STARLINK-3112           
1 49421U 21104P   24309.22625684  .00000876  00000+0  73129-4 0  9997
2 49421  53.2178 270.6944 0001409  92.1370 267.9783 15.08839291164588
STARLINK-3161           
1 49422U 21104Q   24309.28615793  .00032858  00000+0  20731-2 0  9998
2 49422  53.2159 270.9441 0001174 106.3892 253.7229 15.08838169164580
STARLINK-3149           
1 49423U 21104R   24309.58694563 -.00002357  00000+0 -13009-3 0  9998
2 49423  53.2164 269.4669 0001212  86.8820 273.2311 15.08829603164636
STARLINK-3135           
1 49424U 21104S   24309.18212345  .00000274  00000+0  35341-4 0  9997
2 49424  53.2160 271.0879 0001437 103.3874 256.7279 15.08834081164576
STARLINK-3139           
1 49425U 21104T   24309.16836021  .00000165  00000+0  28444-4 0  9994
2 49425  53.2177 271.1600 0001477  99.4506 260.6653 15.08834520164588
STARLINK-3114           
1 49426U 21104U   24309.30724249 -.00000406  00000+0 -74276-5 0  9994
2 49426  53.2169 270.5242 0001720  89.2940 270.8249 15.08826567164592
STARLINK-3131           
1 49427U 21104V   24309.62834692 -.00004340  00000+0 -25480-3 0  9996
2 49427  53.2172 269.0967 0001351  91.5134 268.6013 15.08829578165753
STARLINK-3121           
1 49428U 21104W   24309.27779074 -.00001233  00000+0 -59406-4 0  9994
2 49428  53.2161 270.5740 0001231 106.2327 253.8801 15.08833604164602
STARLINK-3138           
1 49430U 21104Y   24309.58422688 -.00000923  00000+0 -39923-4 0  9994
2 49430  53.2171 269.5671 0001330  98.0446 262.0697 15.08843090164646
STARLINK-3153           
1 49431U 21104Z   24309.20423026  .00001167  00000+0  91419-4 0  9998
2 49431  53.2164 271.1759 0001779  87.6997 272.4199 15.08837238164589
STARLINK-3158           
1 49432U 21104AA  24309.58879715  .00000773  00000+0  66662-4 0  9994
2 49432  53.2160 259.2673 0001361  82.9189 277.1958 15.08841798164789
STARLINK-3079           
1 49433U 21104AB  24309.25756181  .00001079  00000+0  85866-4 0  9997
2 49433  53.2162 250.7507 0001304  84.5890 275.5251 15.08836896165960
STARLINK-3134           
1 49434U 21104AC  24309.63478071  .00014206  00000+0  90884-3 0  9990
2 49434  53.2172 269.2109 0001787  92.5828 267.5369 15.08840927165736
STARLINK-3117           
1 49435U 21104AD  24309.26220131 -.00000058  00000+0  14480-4 0  9992
2 49435  53.2162 250.7282 0001411 107.0440 253.0706 15.08833386164879
STARLINK-3049           
1 49436U 21104AE  24309.26123767 -.00000277  00000+0  69856-6 0  9992
2 49436  53.2157 250.7327 0001259  91.3166 268.7970 15.08841818164879
STARLINK-3130           
1 49437U 21104AF  24309.25387782  .00007284  00000+0  47512-3 0  9997
2 49437  53.2156 250.7663 0001358 103.0694 257.0450 15.08851791164874
STARLINK-3044           
1 49438U 21104AG  24309.57498829 -.00001009  00000+0 -45283-4 0  9993
2 49438  53.2174 249.2612 0001501  98.3645 261.7517 15.08841859165998
STARLINK-3105           
1 49440U 21104AJ  24309.57771358  .00006073  00000+0  39926-3 0  9997
2 49440  53.2167 249.3168 0001336  87.2177 272.8968 15.08847989165996
STARLINK-3128           
1 49441U 21104AK  24309.55931600  .00000118  00000+0  25476-4 0  9994
2 49441  53.2165 249.3972 0001188  91.1846 268.9282 15.08843700166005
STARLINK-3098           
1 49442U 21104AL  24309.57403794  .00003194  00000+0  21861-3 0  9995
2 49442  53.2173 249.3359 0001412 111.4884 248.6259 15.08850547166008
STARLINK-3136           
1 49443U 21104AM  24309.55563861  .00004219  00000+0  28290-3 0  9998
2 49443  53.2166 249.4150 0001418  81.1508 278.9645 15.08856389164927
STARLINK-3126           
1 49444U 21104AN  24309.57132199  .00000922  00000+0  75994-4 0  9998
2 49444  53.2181 249.3511 0001525 109.3882 250.7275 15.08836552165997
STARLINK-3122           
1 49445U 21104AP  24309.15828880  .00000588  00000+0  55016-4 0  9993
2 49445  53.2161 261.5909 0001332  95.1491 264.9653 15.08829950164717
STARLINK-3099           
1 49446U 21104AQ  24309.56669881 -.00000041  00000+0  15525-4 0  9999
2 49446  53.2162 249.3669 0000924 120.3981 239.7103 15.08820458165992
STARLINK-3115           
1 49447U 21104AR  24309.57679420  .00000864  00000+0  72382-4 0  9997
2 49447  53.2153 259.3194 0001355  71.9447 288.1693 15.08845841165854
STARLINK-3137           
1 49449U 21104AT  24309.57312817 -.00000133  00000+0  97465-5 0  9993
2 49449  53.2167 259.3460 0001228  84.2379 275.8753 15.08833036164781
STARLINK-3127           
1 49450U 21104AU  24309.25295895 -.00005118  00000+0 -30382-3 0  9998
2 49450  53.2160 260.8098 0001120  93.3755 266.7365 15.08828640164996
STARLINK-3125           
1 49451U 21104AV  24309.56945559  .00020485  00000+0  13017-2 0  9999
2 49451  53.2182 259.3564 0001810 117.0605 243.0572 15.08832105164782
STARLINK-3150           
1 49452U 21104AW  24309.55935348 -.00000152  00000+0  85054-5 0  9997
2 49452  53.2168 259.4353 0001121  95.8681 264.2439 15.08845860165865
STARLINK-3129           
1 49453U 21104AX  24309.57040171  .00000715  00000+0  62990-4 0  9998
2 49453  53.2164 259.4348 0001237  86.3005 273.8129 15.08844402165851
STARLINK-3160           
1 49454U 21104AY  24309.56576147  .00001256  00000+0  96969-4 0  9999
2 49454  53.2158 259.3691 0001417  87.1491 272.9664 15.08841951164784
STARLINK-3145           
1 49455U 21104AZ  24309.28607865 -.00000853  00000+0 -35521-4 0  9992
2 49455  53.2164 260.6216 0001173  90.7536 269.3591 15.08834531164740
STARLINK-3124           
1 49456U 21104BA  24309.56303534  .00003968  00000+0  26714-3 0  9991
2 49456  53.2158 259.4304 0001465 114.2996 245.8149 15.08854963164787
STARLINK-3132           
1 49457U 21104BB  24309.28335715 -.00002168  00000+0 -11818-3 0  9999
2 49457  53.2167 260.6455 0001566  89.8018 270.3154 15.08836224165817
STARLINK-3156           
1 49458U 21104BC  24309.28976310  .00002199  00000+0  15626-3 0  9995
2 49458  53.2167 260.6056 0001129 101.7698 258.3421 15.08833157164744
STARLINK-3141           
1 49459U 21104BD  24309.27872312 -.00000837  00000+0 -34532-4 0  9999
2 49459  53.2167 260.6551 0001114  99.8434 260.2684 15.08840547164748
STARLINK-3140           
1 49460U 21104BE  24309.60624360 -.00002582  00000+0 -14419-3 0  9996
2 49460  53.2172 259.1869 0001651  93.1258 266.9923 15.08841282165879
STARLINK-3219           
1 49724U 21115A   24309.80775125  .00010735  00000+0  69146-3 0  9993
2 49724  53.2149 188.5077 0001354  98.4660 261.6485 15.08844898162684
STARLINK-3218           
1 49725U 21115B   24309.36613132  .00002927  00000+0  20188-3 0  9991
2 49725  53.2160 190.3752 0001137  86.6583 273.4539 15.08848313161519
STARLINK-3242           
1 49727U 21115D   24308.98984171  .00000668  00000+0  60087-4 0  9997
2 49727  53.2144 201.9560 0001295  94.3970 265.7170 15.08837701161312
STARLINK-3240           
1 49728U 21115E   24309.78840930  .00006545  00000+0  42885-3 0  9996
2 49728  53.2168 198.3735 0001321  87.4193 272.6951 15.08847454162548
STARLINK-3251           
1 49729U 21115F   24308.98615091 -.00000627  00000+0 -21323-4 0  9998
2 49729  53.2159 201.8576 0001292  88.5598 271.5542 15.08829942161310
STARLINK-3249           
1 49730U 21115G   24309.42041953  .00000973  00000+0  79203-4 0  9992
2 49730  53.2137 200.2146 0000905  80.9701 279.1393 15.08846721161374
STARLINK-3246           
1 49732U 21115J   24309.42778108  .00002094  00000+0  14964-3 0  9991
2 49732  53.2151 200.1387 0001227  89.8491 270.2642 15.08839305161379
STARLINK-3252           
1 49733U 21115K   24309.40568114  .00001682  00000+0  12375-3 0  9990
2 49733  53.2157 200.0919 0001340  94.1973 265.9172 15.08844476161370
STARLINK-3238           
1 49734U 21115L   24309.82244611  .00013904  00000+0  88967-3 0  9990
2 49734  53.2151 188.2432 0001204  99.6197 260.4931 15.08851230162694
STARLINK-3113           
1 49735U 21115M   24309.39830518  .00001987  00000+0  14290-3 0  9996
2 49735  53.2164 200.0066 0001017  78.8446 281.2660 15.08842936161370
STARLINK-3148           
1 49736U 21115N   24309.81875039  .00003088  00000+0  21201-3 0  9995
2 49736  53.2148 188.1174 0001375  87.7263 272.3886 15.08841102162693
STARLINK-3225           
1 49737U 21115P   24309.82612012  .00001512  00000+0  11308-3 0  9994
2 49737  53.2152 188.2032 0001447 107.2472 252.8679 15.08835481162699
STARLINK-3143           
1 49738U 21115Q   24309.05798271  .00002101  00000+0  15006-3 0  9996
2 49738  53.2157 191.8563 0001414  82.9638 277.1514 15.08845137161462
STARLINK-3155           
1 49739U 21115R   24309.08553587 -.00001253  00000+0 -60772-4 0  9999
2 49739  53.2149 201.5301 0001259  83.9912 276.1223 15.08789151161320
STARLINK-3226           
1 49740U 21115S   24309.37811008  .00003507  00000+0  23824-3 0  9996
2 49740  53.2160 190.1869 0001281  78.1178 281.9958 15.08849550161512
STARLINK-3244           
1 49741U 21115T   24309.37444268  .00004036  00000+0  27153-3 0  9994
2 49741  53.2158 190.2389 0001593  82.0145 278.1028 15.08840800161517
STARLINK-3202           
1 49742U 21115U   24309.38820701  .00004876  00000+0  32429-3 0  9990
2 49742  53.2154 190.1694 0001150  88.8830 271.2294 15.08831487161516
STARLINK-3239           
1 49743U 21115V   24309.83443639  .00007289  00000+0  47562-3 0  9997
2 49743  53.2158 188.0997 0001312  98.5918 261.5223 15.08837187162695
